[{"OBJECT_NAME":"TIMED","OBJECT_ID":"2001-055B","EPOCH":"2026-03-09T23:32:00.219840","MEAN_MOTION":14.95023149,"ECCENTRICITY":0.00030271,"INCLINATION":74.0661,"RA_OF_ASC_NODE":74.7343,"ARG_OF_PERICENTER":275.2296,"MEAN_ANOMALY":84.8543,"EPHEMERIS_TYPE":0,"CLASSIFICATION_TYPE":"U","NORAD_CAT_ID":26998,"ELEMENT_SET_NO":999,"REV_AT_EPOCH":31599,"BSTAR":0.00016805814,"MEAN_MOTION_DOT":1.8e-5,"MEAN_MOTION_DDOT":0},{"OBJECT_NAME":"LEMUR-1","OBJECT_ID":"2014-033AL","EPOCH":"2026-03-09T21:47:45.945024","MEAN_MOTION":14.84803636,"ECCENTRICITY":0.00494996,"INCLINATION":97.7719,"RA_OF_ASC_NODE":221.0277,"ARG_OF_PERICENTER":45.162,"MEAN_ANOMALY":315.3601,"EPHEMERIS_TYPE":0,"CLASSIFICATION_TYPE":"U","NORAD_CAT_ID":40044,"ELEMENT_SET_NO":999,"REV_AT_EPOCH":63073,"BSTAR":0.00036816661,"MEAN_MOTION_DOT":3.139e-5,"MEAN_MOTION_DDOT":0}]
